[{"OBJECT_NAME":"ONEWEB-0012","OBJECT_ID":"2019-010A","EPOCH":"2025-10-08T05:56:03.333984","MEAN_MOTION":13.16593855,"ECCENTRICITY":0.00015626,"INCLINATION":87.8957,"RA_OF_ASC_NODE":278.9961,"ARG_OF_PERICENTER":78.4359,"MEAN_ANOMALY":281.6947,"EPHEMERIS_TYPE":0,"CLASSIFICATION_TYPE":"U","NORAD_CAT_ID":44057,"ELEMENT_SET_NO":999,"REV_AT_EPOCH":31841,"BSTAR":-0.00018853059,"MEAN_MOTION_DOT":-5.9e-7,"MEAN_MOTION_DDOT":0},{"OBJECT_NAME":"ONEWEB-0010","OBJECT_ID":"2019-010B","EPOCH":"2025-10-08T06:32:31.937568","MEAN_MOTION":13.16593622,"ECCENTRICITY":0.00018832,"INCLINATION":87.8967,"RA_OF_ASC_NODE":278.9751,"ARG_OF_PERICENTER":102.5881,"MEAN_ANOMALY":257.546,"EPHEMERIS_TYPE":0,"CLASSIFICATION_TYPE":"U","NORAD_CAT_ID":44058,"ELEMENT_SET_NO":999,"REV_AT_EPOCH":31846,"BSTAR":-0.00010371943,"MEAN_MOTION_DOT":-2.7e-7,"MEAN_MOTION_DDOT":0},{"OBJECT_NAME":"ONEWEB-0008","OBJECT_ID":"2019-010C","EPOCH":"2025-10-08T07:09:00.373536","MEAN_MOTION":13.1659426,"ECCENTRICITY":0.00020475,"INCLINATION":87.8963,"RA_OF_ASC_NODE":278.9668,"ARG_OF_PERICENTER":86.263,"MEAN_ANOMALY":273.8735,"EPHEMERIS_TYPE":0,"CLASSIFICATION_TYPE":"U","NORAD_CAT_ID":44059,"ELEMENT_SET_NO":999,"REV_AT_EPOCH":31858,"BSTAR":0.00033485736,"MEAN_MOTION_DOT":1.41e-6,"MEAN_MOTION_DDOT":0},{"OBJECT_NAME":"ONEWEB-0007","OBJECT_ID":"2019-010D","EPOCH":"2025-10-08T03:11:26.470464","MEAN_MOTION":13.15547355,"ECCENTRICITY":0.00016242,"INCLINATION":87.898,"RA_OF_ASC_NODE":309.532,"ARG_OF_PERICENTER":101.69,"MEAN_ANOMALY":258.4413,"EPHEMERIS_TYPE":0,"CLASSIFICATION_TYPE":"U","NORAD_CAT_ID":44060,"ELEMENT_SET_NO":999,"REV_AT_EPOCH":31823,"BSTAR":-5.7444438e-5,"MEAN_MOTION_DOT":-9.0e-8,"MEAN_MOTION_DDOT":0},{"OBJECT_NAME":"ONEWEB-0006","OBJECT_ID":"2019-010E","EPOCH":"2025-10-08T03:17:07.951776","MEAN_MOTION":13.15546657,"ECCENTRICITY":0.00017531,"INCLINATION":87.8987,"RA_OF_ASC_NODE":309.4731,"ARG_OF_PERICENTER":102.1535,"MEAN_ANOMALY":257.9792,"EPHEMERIS_TYPE":0,"CLASSIFICATION_TYPE":"U","NORAD_CAT_ID":44061,"ELEMENT_SET_NO":999,"REV_AT_EPOCH":31828,"BSTAR":0.00033110294,"MEAN_MOTION_DOT":1.37e-6,"MEAN_MOTION_DDOT":0},{"OBJECT_NAME":"ONEWEB-0011","OBJECT_ID":"2019-010F","EPOCH":"2025-10-08T02:31:29.849376","MEAN_MOTION":13.15547763,"ECCENTRICITY":0.00020641,"INCLINATION":87.8987,"RA_OF_ASC_NODE":309.4917,"ARG_OF_PERICENTER":96.7253,"MEAN_ANOMALY":263.4112,"EPHEMERIS_TYPE":0,"CLASSIFICATION_TYPE":"U","NORAD_CAT_ID":44062,"ELEMENT_SET_NO":999,"REV_AT_EPOCH":31827,"BSTAR":-0.00027196486,"MEAN_MOTION_DOT":-9.0e-7,"MEAN_MOTION_DDOT":0},{"OBJECT_NAME":"ONEWEB-0013","OBJECT_ID":"2020-008A","EPOCH":"2025-10-08T05:47:34.128672","MEAN_MOTION":13.09438184,"ECCENTRICITY":0.00011887,"INCLINATION":87.8477,"RA_OF_ASC_NODE":103.7094,"ARG_OF_PERICENTER":47.0554,"MEAN_ANOMALY":313.0672,"EPHEMERIS_TYPE":0,"CLASSIFICATION_TYPE":"U","NORAD_CAT_ID":45131,"ELEMENT_SET_NO":999,"REV_AT_EPOCH":27309,"BSTAR":-0.001292316,"MEAN_MOTION_DOT":-4.32e-6,"MEAN_MOTION_DDOT":0},{"OBJECT_NAME":"ONEWEB-0017","OBJECT_ID":"2020-008B","EPOCH":"2025-10-08T04:08:39.662592","MEAN_MOTION":13.1036966,"ECCENTRICITY":0.00017121,"INCLINATION":87.8745,"RA_OF_ASC_NODE":86.5211,"ARG_OF_PERICENTER":100.2472,"MEAN_ANOMALY":259.8848,"EPHEMERIS_TYPE":0,"CLASSIFICATION_TYPE":"U","NORAD_CAT_ID":45132,"ELEMENT_SET_NO":999,"REV_AT_EPOCH":27494,"BSTAR":-0.0013016739,"MEAN_MOTION_DOT":-4.42e-6,"MEAN_MOTION_DDOT":0},{"OBJECT_NAME":"ONEWEB-0020","OBJECT_ID":"2020-008C","EPOCH":"2025-10-07T23:45:45.461664","MEAN_MOTION":13.10373759,"ECCENTRICITY":0.000183,"INCLINATION":87.8746,"RA_OF_ASC_NODE":86.5404,"ARG_OF_PERICENTER":88.3953,"MEAN_ANOMALY":271.7384,"EPHEMERIS_TYPE":0,"CLASSIFICATION_TYPE":"U","NORAD_CAT_ID":45133,"ELEMENT_SET_NO":999,"REV_AT_EPOCH":27531,"BSTAR":0.0020639321,"MEAN_MOTION_DOT":7.33e-6,"MEAN_MOTION_DDOT":0},{"OBJECT_NAME":"ONEWEB-0021","OBJECT_ID":"2020-008D","EPOCH":"2025-10-08T03:47:10.108032","MEAN_MOTION":13.10369267,"ECCENTRICITY":0.00015514,"INCLINATION":87.8744,"RA_OF_ASC_NODE":86.5409,"ARG_OF_PERICENTER":93.8887,"MEAN_ANOMALY":266.2417,"EPHEMERIS_TYPE":0,"CLASSIFICATION_TYPE":"U","NORAD_CAT_ID":45134,"ELEMENT_SET_NO":999,"REV_AT_EPOCH":27564,"BSTAR":0.00094644462,"MEAN_MOTION_DOT":3.43e-6,"MEAN_MOTION_DDOT":0},{"OBJECT_NAME":"ONEWEB-0023","OBJECT_ID":"2020-008F","EPOCH":"2025-10-08T04:02:41.446464","MEAN_MOTION":13.103706,"ECCENTRICITY":0.00017327,"INCLINATION":87.8745,"RA_OF_ASC_NODE":86.5211,"ARG_OF_PERICENTER":83.9027,"MEAN_ANOMALY":276.2298,"EPHEMERIS_TYPE":0,"CLASSIFICATION_TYPE":"U","NORAD_CAT_ID":45136,"ELEMENT_SET_NO":999,"REV_AT_EPOCH":27507,"BSTAR":-0.0008093897,"MEAN_MOTION_DOT":-2.7e-6,"MEAN_MOTION_DDOT":0},{"OBJECT_NAME":"ONEWEB-0024","OBJECT_ID":"2020-008G","EPOCH":"2025-10-08T05:13:13.407456","MEAN_MOTION":13.10375439,"ECCENTRICITY":0.00016094,"INCLINATION":87.8768,"RA_OF_ASC_NODE":86.4677,"ARG_OF_PERICENTER":92.0865,"MEAN_ANOMALY":268.0447,"EPHEMERIS_TYPE":0,"CLASSIFICATION_TYPE":"U","NORAD_CAT_ID":45137,"ELEMENT_SET_NO":999,"REV_AT_EPOCH":27524,"BSTAR":0.0018170122,"MEAN_MOTION_DOT":6.47e-6,"MEAN_MOTION_DDOT":0},{"OBJECT_NAME":"ONEWEB-0025","OBJECT_ID":"2020-008H","EPOCH":"2025-10-08T03:48:21.244608","MEAN_MOTION":13.10369651,"ECCENTRICITY":0.00012029,"INCLINATION":87.8758,"RA_OF_ASC_NODE":86.4887,"ARG_OF_PERICENTER":74.1807,"MEAN_ANOMALY":285.9453,"EPHEMERIS_TYPE":0,"CLASSIFICATION_TYPE":"U","NORAD_CAT_ID":45138,"ELEMENT_SET_NO":999,"REV_AT_EPOCH":27556,"BSTAR":0.00095603326,"MEAN_MOTION_DOT":3.46e-6,"MEAN_MOTION_DDOT":0},{"OBJECT_NAME":"ONEWEB-0026","OBJECT_ID":"2020-008J","EPOCH":"2025-10-08T03:36:28.285632","MEAN_MOTION":13.1141773,"ECCENTRICITY":0.00017651,"INCLINATION":87.8811,"RA_OF_ASC_NODE":71.2607,"ARG_OF_PERICENTER":98.2836,"MEAN_ANOMALY":261.8492,"EPHEMERIS_TYPE":0,"CLASSIFICATION_TYPE":"U","NORAD_CAT_ID":45139,"ELEMENT_SET_NO":999,"REV_AT_EPOCH":27807,"BSTAR":-0.0008790338,"MEAN_MOTION_DOT":-2.99e-6,"MEAN_MOTION_DDOT":0},{"OBJECT_NAME":"ONEWEB-0028","OBJECT_ID":"2020-008K","EPOCH":"2025-10-08T04:24:05.474016","MEAN_MOTION":13.114149,"ECCENTRICITY":0.00012124,"INCLINATION":87.8804,"RA_OF_ASC_NODE":71.2736,"ARG_OF_PERICENTER":74.8299,"MEAN_ANOMALY":285.2963,"EPHEMERIS_TYPE":0,"CLASSIFICATION_TYPE":"U","NORAD_CAT_ID":45140,"ELEMENT_SET_NO":999,"REV_AT_EPOCH":27559,"BSTAR":0.0013192847,"MEAN_MOTION_DOT":4.8e-6,"MEAN_MOTION_DDOT":0},{"OBJECT_NAME":"ONEWEB-0032","OBJECT_ID":"2020-008L","EPOCH":"2025-10-08T04:11:02.779008","MEAN_MOTION":13.10369668,"ECCENTRICITY":0.00015418,"INCLINATION":87.8742,"RA_OF_ASC_NODE":86.5206,"ARG_OF_PERICENTER":86.3794,"MEAN_ANOMALY":273.751,"EPHEMERIS_TYPE":0,"CLASSIFICATION_TYPE":"U","NORAD_CAT_ID":45141,"ELEMENT_SET_NO":999,"REV_AT_EPOCH":27529,"BSTAR":-0.0014401457,"MEAN_MOTION_DOT":-4.9e-6,"MEAN_MOTION_DDOT":0},{"OBJECT_NAME":"ONEWEB-0033","OBJECT_ID":"2020-008M","EPOCH":"2025-10-08T05:25:10.558560","MEAN_MOTION":13.10372938,"ECCENTRICITY":0.00017074,"INCLINATION":87.8747,"RA_OF_ASC_NODE":86.5222,"ARG_OF_PERICENTER":97.5794,"MEAN_ANOMALY":262.5527,"EPHEMERIS_TYPE":0,"CLASSIFICATION_TYPE":"U","NORAD_CAT_ID":45142,"ELEMENT_SET_NO":999,"REV_AT_EPOCH":27521,"BSTAR":0.0016622498,"MEAN_MOTION_DOT":5.93e-6,"MEAN_MOTION_DDOT":0}]
