ONEWEB-0012             
1 44057U 19010A   25281.24726081 -.00000059  00000+0 -18853-3 0  9992
2 44057  87.8957 278.9961 0001562  78.4359 281.6947 13.16593855318418
ONEWEB-0010             
1 44058U 19010B   25281.27259187 -.00000027  00000+0 -10372-3 0  9997
2 44058  87.8967 278.9751 0001883 102.5881 257.5460 13.16593622318461
ONEWEB-0008             
1 44059U 19010C   25281.29792099  .00000141  00000+0  33486-3 0  9990
2 44059  87.8963 278.9668 0002047  86.2630 273.8735 13.16594260318586
ONEWEB-0007             
1 44060U 19010D   25281.13294526 -.00000009  00000+0 -57444-4 0  9993
2 44060  87.8980 309.5320 0001624 101.6900 258.4413 13.15547355318231
ONEWEB-0006             
1 44061U 19010E   25281.13689759  .00000137  00000+0  33110-3 0  9993
2 44061  87.8987 309.4731 0001753 102.1535 257.9792 13.15546657318280
ONEWEB-0011             
1 44062U 19010F   25281.10520659 -.00000090  00000+0 -27196-3 0  9991
2 44062  87.8987 309.4917 0002064  96.7253 263.4112 13.15547763318274
ONEWEB-0013             
1 45131U 20008A   25281.24136723 -.00000432  00000+0 -12923-2 0  9999
2 45131  87.8477 103.7094 0001188  47.0554 313.0672 13.09438184273098
ONEWEB-0017             
1 45132U 20008B   25281.17268128 -.00000442  00000+0 -13017-2 0  9993
2 45132  87.8745  86.5211 0001712 100.2472 259.8848 13.10369660274941
ONEWEB-0020             
1 45133U 20008C   25280.99010951  .00000733  00000+0  20639-2 0  9991
2 45133  87.8746  86.5404 0001830  88.3953 271.7384 13.10373759275312
ONEWEB-0021             
1 45134U 20008D   25281.15775588  .00000343  00000+0  94644-3 0  9990
2 45134  87.8744  86.5409 0001551  93.8887 266.2417 13.10369267275644
ONEWEB-0023             
1 45136U 20008F   25281.16853526 -.00000270  00000+0 -80939-3 0  9995
2 45136  87.8745  86.5211 0001732  83.9027 276.2298 13.10370600275073
ONEWEB-0024             
1 45137U 20008G   25281.21751629  .00000647  00000+0  18170-2 0  9996
2 45137  87.8768  86.4677 0001609  92.0865 268.0447 13.10375439275247
ONEWEB-0025             
1 45138U 20008H   25281.15857922  .00000346  00000+0  95603-3 0  9996
2 45138  87.8758  86.4887 0001202  74.1807 285.9453 13.10369651275565
ONEWEB-0026             
1 45139U 20008J   25281.15032738 -.00000299  00000+0 -87903-3 0  9990
2 45139  87.8811  71.2607 0001765  98.2836 261.8492 13.11417730278079
ONEWEB-0028             
1 45140U 20008K   25281.18339669  .00000480  00000+0  13193-2 0  9997
2 45140  87.8804  71.2736 0001212  74.8299 285.2963 13.11414900275599
ONEWEB-0032             
1 45141U 20008L   25281.17433772 -.00000490  00000+0 -14401-2 0  9993
2 45141  87.8742  86.5206 0001541  86.3794 273.7510 13.10369668275291
ONEWEB-0033             
1 45142U 20008M   25281.22581665  .00000593  00000+0  16622-2 0  9994
2 45142  87.8747  86.5222 0001707  97.5794 262.5527 13.10372938275213
